P/2019 X1 (Pruyne),e,10.2498,43.6657,36.7916,6.173672,0.0642523,0.30354029,82.1924,01/21.0/2023,2000,g 10.4,4.0
# From MPC119999
C/2019 Y1 (ATLAS),e,73.3520,31.5536,57.9207,86.27076,0.0012300,0.99038480,0.0000,03/15.9002/2020,2000,g 13.7,4.0
# From MPEC 2022-YN2
C/2019 Y4 (ATLAS),e,45.2625,120.6372,177.4540,355.2733,0.0001472,0.99928302,0.0000,05/30.9465/2020,2000,g 11.8,6.0
# From MPEC 2020-L06
C/2019 Y4-A (ATLAS),h,05/30.9724/2020,45.7061,120.9979,177.2878,1.001420,0.252878,2000,11.6,6.0
# From MPEC 2020-L06
C/2019 Y4-B (ATLAS),e,45.3417,120.6927,177.4206,1520,0.0000166,0.99983258,0.0000,05/30.9490/2020,2000,g 12.8,6.0
# From MPEC 2020-L06
C/2019 Y4-C (ATLAS),h,05/30.9276/2020,45.4883,120.7243,177.3212,1.002142,0.253943,2000,12.7,6.0
# From MPEC 2020-L06
C/2019 Y4-D (ATLAS),e,45.5321,121.1003,177.4590,68.47387,0.0017395,0.99630098,0.0000,05/31.0513/2020,2000,g 12.5,6.0
# From MPEC 2023-A50
C/2019 Y5 (PANSTARRS),e,82.7735,51.7605,303.5486,770.5855,0.0000461,0.99361721,0.0000,08/18.0585/2019,2000,g 11.0,4.0
# From MPEC 2023-A50
A/2020 A1,e,149.0389,119.2212,302.5384,25.70471,0.0075628,0.93515649,8.6633,01/21.0/2023,2000,g 18.0,2.0
# From MPEC 2022-YN2
C/2020 A2 (NEOWISE),e,120.6560,286.3198,68.1144,1511,0.0000168,0.99935507,0.0000,01/08.5641/2020,2000,g 13.5,4.0
# From MPEC 2023-A50
C/2020 A3 (ATLAS),h,06/29.3022/2019,146.6769,120.8029,268.3945,1.001060,5.762026,2000,8.0,4.0
# From MPEC 2022-P91
P/2020 A4 (PANSTARRS-Lemmon),e,24.9903,312.3922,144.7630,8.193640,0.0420232,0.65386870,48.5457,01/21.0/2023,2000,g 15.0,4.0
# From MPEC 2020-N08
A/2020 B1,e,18.5170,309.9742,154.7152,51.36277,0.0026775,0.96608732,3.0037,01/21.0/2023,2000,g 21.0,2.0
# From MPEC 2022-N37
C/2020 B3 (Rankin),e,20.7099,185.8504,324.9302,960.0828,0.0000331,0.99652305,0.0000,10/19.3947/2019,2000,g 13.0,4.0
# From MPEC 2022-H04
P/2020 B4 (Sheppard),e,11.6095,185.9794,342.1188,7.966483,0.0438333,0.19172898,18.7181,01/21.0/2023,2000,g 10.5,4.0
# From MPEC 2023-B57
C/2020 F2 (ATLAS),h,07/15.2050/2022,163.5874,250.2840,48.3394,1.005446,8.816920,2000,4.5,4.0
# From MPEC 2021-O56
C/2020 F3 (NEOWISE),e,129.0855,61.0641,37.3507,352.5591,0.0001489,0.99916143,0.0000,07/03.6627/2020,2000,g  7.5,5.2
# From MPEC 2023-B57
C/2020 F5 (MASTER),e,52.2146,350.5062,310.6824,183.1385,0.0003977,0.97639080,0.0000,03/17.8546/2021,2000,g  6.5,3.2
# From MPEC 2020-L06
C/2020 F6 (PANSTARRS),e,174.5830,207.9095,344.5765,407.8636,0.0001197,0.99140155,0.0000,04/11.7543/2020,2000,g 14.5,2.8
# From MPEC 2023-B57
C/2020 F7 (Lemmon),e,93.9504,321.8755,227.9511,598.6788,0.0000673,0.99109369,0.0000,11/13.7820/2021,2000,g  7.0,4.0
# From MPEC 2020-KB7
C/2020 F8 (SWAN),e,110.6679,259.8930,68.1372,257.7676,0.0002382,0.99833384,0.0000,05/27.4391/2020,2000,g 10.0,4.0
# From MPEC 2020-L06
P/2020 G1 (Pimentel),e,18.5056,240.1200,207.6008,3.608515,0.1437843,0.86027974,149.4631,01/21.0/2023,2000,g 17.0,4.0
# From MPEC 2022-YB4
C/2020 H2 (Pruyne),e,124.9390,277.6620,26.6800,190.8492,0.0003738,0.99564107,0.0000,04/27.8179/2020,2000,g 14.0,3.2
# From MPEC 2020-HM1
C/2020 H3 (Wierzchos),p,06/05.7162/2020,62.5292,30.4456,2.300288,270.6227,2000,13.5,4.0
# From MPEC 2020-L06
C/2020 H4 (Leonard),e,84.5005,307.6737,117.5468,47.88229,0.0029747,0.98068567,0.0000,08/29.6327/2020,2000,g 15.0,3.2
# From MPEC 2023-B57
C/2020 H5 (Robinson),e,70.2533,210.6274,326.3546,3726,0.0000043,0.99749239,0.0000,12/11.0431/2020,2000,g  5.0,4.0
# From MPEC 2023-B57
C/2020 H6 (ATLAS),e,79.9775,213.7182,20.3181,24672,0.0000003,0.99980940,0.0000,09/30.8234/2021,2000,g  8.0,3.2
# From MPEC 2020-KB7
C/2020 H7 (Lemmon),e,135.9235,323.5194,82.6780,1405,0.0000187,0.99685380,0.0000,06/02.9510/2020,2000,g 11.0,4.0
# From MPEC 2021-N06
C/2020 H8 (PANSTARRS),e,99.6817,68.4218,128.9448,595.6145,0.0000678,0.99215014,0.0000,06/04.5024/2020,2000,g 10.5,4.0
# From MPEC 2022-ED3
A/2020 H9,e,137.8783,213.1778,312.8508,372.5051,0.0001371,0.99308651,0.0000,12/21.5543/2019,2000,g 18.0,2.0
# From MPEC 2023-A50
C/2020 J1 (SONEAR),h,04/18.6520/2021,142.3044,226.6004,341.7550,1.000796,3.354126,2000,8.5,3.2
# From MPEC 2023-A50
C/2020 K1 (PANSTARRS),h,05/09.0754/2023,89.6685,94.3548,213.9837,1.000014,3.073283,2000,5.5,4.0
# From MPEC 2021-N06
C/2020 K2 (PANSTARRS),h,08/06.3633/2020,91.0313,288.3852,67.3499,1.003948,8.879804,2000,10.8,4.0
# From MPEC 2020-KF9
C/2020 K3 (Leonard),p,06/01.0032/2020,129.0152,64.4924,1.583069,28.3546,2000,14.5,4.0
# From MPEC 2020-L06
C/2020 K4 (PANSTARRS),e,125.5813,264.1767,308.8572,23.95578,0.0084060,0.92677259,8.8527,01/21.0/2023,2000,g 16.5,4.0
# From MPEC 2021-R75
C/2020 K5 (PANSTARRS),h,06/05.5181/2021,67.1246,86.1644,249.6073,1.001428,1.536437,2000,11.0,4.0
# From MPEC 2022-PB4
C/2020 K6 (Rankin),h,09/15.8365/2021,103.6498,291.5463,44.3352,1.003672,5.868867,2000,8.0,4.0
# From MPEC 2023-A50
C/2020 K7 (PANSTARRS),e,32.0410,286.0743,358.2631,99.27691,0.0009964,0.93560312,1.1763,01/21.0/2023,2000,g  8.0,4.0
# From MPEC 2021-P47
C/2020 K8 (Catalina-ATLAS),h,09/14.7528/2020,31.4294,181.5454,259.9599,1.000169,0.472369,2000,15.0,3.2
# From MPEC 2021-BE3
P/2020 K9 (Lemmon-PANSTARRS),e,23.2092,166.2415,197.0317,4.202150,0.1144186,0.32135313,80.9681,01/21.0/2023,2000,g 12.5,4.0
# From MPEC 2021-U31
P/2020 M1 (PANSTARRS),e,8.5431,142.6494,72.6313,5.317118,0.0803877,0.47427120,90.1246,01/21.0/2023,2000,g 14.5,4.0
# From MPEC 2022-H30
C/2020 M3 (ATLAS),e,23.4754,71.1743,328.5352,27.06143,0.0070013,0.95313842,5.7212,01/21.0/2023,2000,g 14.5,4.0
# From MPEC 2023-B57
A/2020 M4,h,11/24.2327/2020,160.1268,348.6221,104.6466,1.000981,5.951643,2000,14.5,2.0
# From MPC xxxxx
P/2020 MK4 (PANSTARRS),e,6.8030,0.7135,107.9798,6.199577,0.0638500,0.01150751,246.7239,01/21.0/2023,2000,g  8.0,4.0
# From MPEC 2022-YN2
C/2020 M5 (ATLAS),h,08/19.8619/2021,93.2227,352.0925,126.3145,1.000411,3.003335,2000,9.0,4.0
# From MPEC 2022-GA9
C/2020 N1 (PANSTARRS),h,03/12.2940/2021,29.7188,279.9391,186.7561,1.000442,1.318968,2000,12.5,4.0
# From MPEC 2021-P47
C/2020 N2 (ATLAS),e,161.0345,257.1453,331.3124,104.3940,0.0009240,0.98281999,0.0000,08/23.9967/2020,2000,g 16.0,3.2
# From MPEC 2022-YB4
P/2020 O1 (Lemmon-PANSTARRS),e,5.2255,175.9747,104.5148,2.645480,0.2290590,0.11894356,227.6822,01/21.0/2023,2000,g 15.5,4.0
# From MPEC 2022-Y15
C/2020 O2 (Amaral),h,08/28.6021/2021,71.7587,256.7682,10.3120,1.001829,4.862543,2000,8.0,3.2
# From MPEC 2020-SI8
P/2020 O3 (PANSTARRS),e,8.4438,266.8188,81.5539,4.648299,0.0983474,0.10328725,70.9453,01/21.0/2023,2000,g 12.0,4.0
# From MPEC 2021-BE3
C/2020 P1 (NEOWISE),h,10/20.3605/2020,45.1580,53.4910,8.8879,1.000301,0.341107,2000,14.0,3.2
# From MPEC 2023-B57
C/2020 P3 (ATLAS),h,04/21.1884/2021,61.8895,19.4654,82.2675,1.001057,6.812415,2000,6.0,4.0
# From MPEC 2022-PB4
C/2020 PV6 (PANSTARRS),e,128.2322,329.1482,71.3910,42.05911,0.0036134,0.94542465,1.7414,01/21.0/2023,2000,g 10.0,4.0
# From MPEC 2022-L66
C/2020 Q1 (Borisov),e,142.9369,52.3949,9.9454,60.78233,0.0020799,0.97832957,0.0000,08/14.4408/2020,2000,g 14.0,4.0
# From MPEC 2022-X67
C/2020 R2 (PANSTARRS),e,53.2281,195.0927,211.7806,407.1142,0.0001200,0.98847396,0.0000,02/24.8128/2022,2000,g  9.0,4.0
# From MPEC 2022-K19
C/2020 R4 (ATLAS),e,164.4558,323.2738,46.7023,99.84250,0.0009879,0.98970800,0.0000,03/02.1109/2021,2000,g 13.5,4.0
# From MPEC 2020-W26
P/2020 R5 (PANSTARRS),e,11.4465,272.9726,82.5835,4.986572,0.0885117,0.31460104,85.5531,01/21.0/2023,2000,g  9.5,6.0
# From MPEC 2021-Y10
C/2020 R6 (Rankin),e,82.8102,12.1773,271.9925,322.0437,0.0001705,0.99027063,0.0000,09/08.7811/2019,2000,g 11.0,4.0
# From MPEC 2023-B57
C/2020 R7 (ATLAS),h,09/16.2501/2022,114.8938,268.2822,347.8409,1.000234,2.956009,2000,7.0,3.2
# From MPEC 2021-BE3
P/2020 S1 (PANSTARRS),e,13.7298,129.4632,255.0021,5.991535,0.0672043,0.50773762,49.2958,01/21.0/2023,2000,g 14.0,4.0
# From MPEC 2022-ST7
C/2020 S2 (PANSTARRS),e,22.4044,197.6625,202.3319,10.21769,0.0301769,0.82808482,22.9297,01/21.0/2023,2000,g 17.0,4.0
# From MPEC 2022-C56
C/2020 S3 (Erasmus),e,20.0136,222.6055,350.0958,155.5648,0.0005080,0.99745335,0.0000,12/12.1991/2020,2000,g 13.5,3.2
# From MPEC 2023-B57
C/2020 S4 (PANSTARRS),h,02/09.2335/2023,20.5702,117.7221,20.9900,1.001166,3.369755,2000,8.5,3.2
# From MPEC 2021-BE3
P/2020 S5 (PANSTARRS),e,12.3490,316.0016,53.1969,4.053750,0.1207587,0.33855360,108.0713,01/21.0/2023,2000,g 14.5,4.0
# From MPEC 2021-BE3
P/2020 S7 (PANSTARRS),e,16.0889,328.0267,40.5627,5.029773,0.0873738,0.41072981,69.3133,01/21.0/2023,2000,g 14.5,4.0
# From MPEC 2021-P47
C/2020 S8 (Lemmon),e,108.5274,24.0677,160.2921,266.6981,0.0002263,0.99114294,0.0000,04/10.8543/2021,2000,g 12.5,4.0
# From MPEC 2022-ST7
C/2020 T2 (Palomar),e,27.8558,82.9792,150.5130,314.5931,0.0001766,0.99346096,0.0000,07/11.1056/2021,2000,g 11.0,3.2
# From MPEC 2021-N06
P/2020 T3 (PANSTARRS),e,7.2982,73.9914,357.0364,3.517017,0.1494316,0.59201533,109.1303,01/21.0/2023,2000,g 18.0,3.2
# From MPEC 2021-N06
C/2020 T4 (PANSTARRS),h,07/05.2999/2021,83.8352,50.6143,79.6086,1.000189,2.191636,2000,13.0,3.2
# From MPEC 2021-BE3
C/2020 T5 (Lemmon),e,66.5649,237.8456,90.3292,769.9477,0.0000461,0.99754423,0.0000,10/09.4284/2020,2000,g 16.0,4.0
# From MPEC 2021-N06
P/2020 U2 (PANSTARRS),e,6.4201,342.8906,84.6377,3.778000,0.1342181,0.51104972,101.4751,01/21.0/2023,2000,g 18.0,4.0
# From MPEC 2021-W31
C/2020 U3 (Rankin),e,30.1607,282.6519,124.3232,66.33243,0.0018244,0.96567683,1.3023,01/21.0/2023,2000,g 15.0,4.0
# From MPEC 2022-YN2
C/2020 U4 (PANSTARRS),h,04/09.0767/2022,167.0333,120.1333,69.7692,1.002768,5.355658,2000,7.0,4.0
# From MPEC 2022-YB4
C/2020 U5 (PANSTARRS),e,97.2713,107.3295,75.4297,3875,0.0000041,0.99903062,0.0000,04/27.9474/2022,2000,g  8.0,4.0
# From MPEC 2023-B57
C/2020 V2 (ZTF),h,05/08.5685/2023,131.6109,212.3723,162.4312,1.000889,2.227841,2000,4.9,4.0
# From MPEC 2022-X67
P/2020 V3 (PANSTARRS),e,23.0330,198.2521,249.3336,8.382218,0.0406131,0.25668875,28.8857,01/21.0/2023,2000,g  8.3,4.0
# From MPEC 2022-K19
P/2020 V4 (Rankin),e,14.2441,203.4836,257.0169,9.364835,0.0343917,0.45024426,18.9829,01/21.0/2023,2000,g  9.0,4.0
